ONEWEB-0186             
1 48229U 21031V   26142.16096062 -.00000317  00000+0 -89010-3 0  9990
2 48229  87.8942 294.8856 0001773 101.5135 258.6194 13.14502321244963
ONEWEB-0181             
1 48230U 21031W   26141.98653955 -.00000167  00000+0 -48579-3 0  9999
2 48230  87.8928 294.9537 0001647 101.5549 258.5766 13.14504121244790
ONEWEB-0188             
1 48231U 21031X   26142.17684650  .00000216  00000+0  54811-3 0  9997
2 48231  87.8932 294.9147 0001818  99.2909 260.8426 13.14503434244724
ONEWEB-0220             
1 48232U 21031Y   26142.14035558 -.00000223  00000+0 -63500-3 0  9997
2 48232  87.8946 294.8911 0001849 104.7680 255.3654 13.14501541244987
ONEWEB-0165             
1 48233U 21031Z   26142.16890212  .00000136  00000+0  33194-3 0  9993
2 48233  87.8940 294.8999 0001477 101.7929 258.3367 13.14501327244940
ONEWEB-0199             
1 48234U 21031AA  26142.15304399 -.00000174  00000+0 -50338-3 0  9992
2 48234  87.8946 294.8874 0001955  93.4145 266.7208 13.14501625244844
ONEWEB-0203             
1 48235U 21031AB  26142.14352004 -.00000284  00000+0 -80184-3 0  9992
2 48235  87.8951 294.8926 0001757  92.9058 267.2272 13.14500571244853
ONEWEB-0197             
1 48236U 21031AC  26142.11803139  .00000147  00000+0  36214-3 0  9991
2 48236  87.8936 294.8868 0002022 103.0472 257.0884 13.14502249244762
ONEWEB-0194             
1 48237U 21031AD  26142.17364951  .00000194  00000+0  48920-3 0  9991
2 48237  87.8941 294.8963 0001819  90.2909 269.8429 13.14504150244949
ONEWEB-0193             
1 48238U 21031AE  26141.96115737  .00000108  00000+0  25797-3 0  9996
2 48238  87.8940 294.9297 0001889  83.6938 276.4406 13.14503806244862
ONEWEB-0191             
1 48239U 21031AF  26141.97226049 -.00000072  00000+0 -22864-3 0  9991
2 48239  87.8943 294.9245 0001996  99.2727 260.8629 13.14501201244723
ONEWEB-0195             
1 48240U 21031AG  26142.17762466  .00000211  00000+0  53482-3 0  9997
2 48240  87.8951 294.8842 0001452 104.6621 255.4669 13.14503795244732
ONEWEB-0201             
1 48241U 21031AH  26142.16588081  .00000103  00000+0  24459-3 0  9998
2 48241  87.8936 294.9046 0002015 105.1139 255.0214 13.14505019244967
ONEWEB-0207             
1 48242U 21031AJ  26142.14589815 -.00000327  00000+0 -91771-3 0  9994
2 48242  87.8944 294.8915 0001984 104.6513 255.4837 13.14502285244872
ONEWEB-0208             
1 48243U 21031AK  26142.12767851 -.00000070  00000+0 -22427-3 0  9998
2 48243  87.8942 294.9026 0001442 101.1550 258.9742 13.14503630244886
ONEWEB-0200             
1 48244U 21031AL  26142.16730399  .00000089  00000+0  20506-3 0  9994
2 48244  87.8938 294.8811 0001751 100.9402 259.1925 13.14504601244817
ONEWEB-0217             
1 48245U 21031AM  26142.18316631  .00000245  00000+0  62614-3 0  9996
2 48245  87.8943 294.8817 0001512 103.4868 256.6430 13.14504414244768
PLEIADES NEO 3          
1 48268U 21034A   26142.32067744  .00001031  00000+0  13765-3 0  9995
2 48268  97.8928 217.4589 0001504  95.5660 264.5725 14.81677444273829
LEMUR-2-AMANDA-SVANTE   
1 48269U 21034B   26142.19058920  .00022926  00000+0  73029-3 0  9992
2 48269  97.5763 219.8247 0001568  37.8089 322.3263 15.32562662277078
AII-BRAVO               
1 48270U 21034C   26142.12975423  .00002229  00000+0  16896-3 0  9996
2 48270  97.5631 197.6381 0005856  14.7461 345.3934 15.03243465275701
TYVAK-182A              
1 48271U 21034D   26142.21883375  .00003591  00000+0  25120-3 0  9994
2 48271  97.5739 201.5906 0007563  69.0831 291.1205 15.05886150275929
NORSAT 3                
1 48272U 21034E   26142.28197904  .00002319  00000+0  16747-3 0  9990
2 48272  97.5325 200.1768 0008524  43.6364 316.5535 15.05020415275943
LEMUR-2-SPECIAL-K       
1 48273U 21034F   26141.73464419  .00076260  00000+0  10382-2 0  9992
2 48273  97.5653 226.8334 0001760 197.5474 162.5720 15.57301761277566
CSS (TIANHE)            
1 48274U 21035A   26142.11735104  .00011200  00000+0  13456-3 0  9998
2 48274  41.4679 120.5221 0007455 276.8129  83.1862 15.60736689289094
STARLINK-2567           
1 48276U 21036A   26142.08461758 -.00000040  00000+0  10478-4 0  9991
2 48276  53.1602  69.5805 0001270  88.7618 271.3529 15.31704049279985
STARLINK-2569           
1 48277U 21036B   26141.92354255  .00026807  00000+0  93757-3 0  9995
2 48277  53.1249  32.2869 0005630 103.7980 256.3647 15.29357648280492
STARLINK-2543           
1 48278U 21036C   26142.11529893  .00001301  00000+0  53649-4 0  9999
2 48278  53.1633  42.8967 0001476 100.4723 259.6444 15.31720219280367
STARLINK-2565           
1 48280U 21036E   26142.13467301  .00001114  00000+0  47636-4 0  9990
2 48280  53.1605 119.6000 0001392  84.5050 275.6110 15.31710699279280
STARLINK-2558           
1 48282U 21036G   26142.27268833  .00001937  00000+0  74145-4 0  9994
2 48282  53.1619  93.2115 0001182  81.9136 278.2000 15.31705759279686
STARLINK-2516           
1 48283U 21036H   26142.19810469  .00008640  00000+0  28978-3 0  9994
2 48283  53.1595  93.4964 0001108  90.6972 269.4157 15.31709511279671
