OBJECT_NAME,OBJECT_ID,EPOCH,MEAN_MOTION,ECCENTRICITY,INCLINATION,RA_OF_ASC_NODE,ARG_OF_PERICENTER,MEAN_ANOMALY,EPHEMERIS_TYPE,CLASSIFICATION_TYPE,NORAD_CAT_ID,ELEMENT_SET_NO,REV_AT_EPOCH,BSTAR,MEAN_MOTION_DOT,MEAN_MOTION_DDOT
ONEWEB-0186,2021-031V,2026-05-22T03:51:46.997568,13.14502321,.00017732,87.8942,294.8856,101.5135,258.6194,0,U,48229,999,24496,-.89010497E-3,-.317E-5,0
ONEWEB-0181,2021-031W,2026-05-21T23:40:37.017120,13.14504121,.00016475,87.8928,294.9537,101.5549,258.5766,0,U,48230,999,24479,-.48579342E-3,-.167E-5,0
ONEWEB-0188,2021-031X,2026-05-22T04:14:39.537600,13.14503434,.00018187,87.8932,294.9147,99.2909,260.8426,0,U,48231,999,24472,.54811423E-3,.216E-5,0
ONEWEB-0220,2021-031Y,2026-05-22T03:22:06.722112,13.14501541,.0001849,87.8946,294.8911,104.7680,255.3654,0,U,48232,999,24498,-.63499802E-3,-.223E-5,0
ONEWEB-0165,2021-031Z,2026-05-22T04:03:13.143168,13.14501327,.00014774,87.8940,294.8999,101.7929,258.3367,0,U,48233,999,24494,.3319363E-3,.136E-5,0
ONEWEB-0199,2021-031AA,2026-05-22T03:40:23.000736,13.14501625,.00019555,87.8946,294.8874,93.4145,266.7208,0,U,48234,999,24484,-.50337883E-3,-.174E-5,0
ONEWEB-0203,2021-031AB,2026-05-22T03:26:40.131456,13.14500571,.00017574,87.8951,294.8926,92.9058,267.2272,0,U,48235,999,24485,-.8018415E-3,-.284E-5,0
ONEWEB-0197,2021-031AC,2026-05-22T02:49:57.912096,13.14502249,.00020224,87.8936,294.8868,103.0472,257.0884,0,U,48236,999,24476,.36213512E-3,.147E-5,0
ONEWEB-0194,2021-031AD,2026-05-22T04:10:03.317664,13.14504150,.00018196,87.8941,294.8963,90.2909,269.8429,0,U,48237,999,24494,.48919991E-3,.194E-5,0
ONEWEB-0193,2021-031AE,2026-05-21T23:04:03.996768,13.14503806,.00018893,87.8940,294.9297,83.6938,276.4406,0,U,48238,999,24486,.2579738E-3,.108E-5,0
ONEWEB-0191,2021-031AF,2026-05-21T23:20:03.306336,13.14501201,.00019961,87.8943,294.9245,99.2727,260.8629,0,U,48239,999,24472,-.22864394E-3,-.72E-6,0
ONEWEB-0195,2021-031AG,2026-05-22T04:15:46.770624,13.14503795,.00014527,87.8951,294.8842,104.6621,255.4669,0,U,48240,999,24473,.53481602E-3,.211E-5,0
ONEWEB-0201,2021-031AH,2026-05-22T03:58:52.101984,13.14505019,.0002015,87.8936,294.9046,105.1139,255.0214,0,U,48241,999,24496,.24458964E-3,.103E-5,0
ONEWEB-0207,2021-031AJ,2026-05-22T03:30:05.600160,13.14502285,.00019845,87.8944,294.8915,104.6513,255.4837,0,U,48242,999,24487,-.91770695E-3,-.327E-5,0
ONEWEB-0208,2021-031AK,2026-05-22T03:03:51.423264,13.14503630,.00014427,87.8942,294.9026,101.1550,258.9742,0,U,48243,999,24488,-.22426544E-3,-.7E-6,0
ONEWEB-0200,2021-031AL,2026-05-22T04:00:55.064736,13.14504601,.00017516,87.8938,294.8811,100.9402,259.1925,0,U,48244,999,24481,.20505615E-3,.89E-6,0
ONEWEB-0217,2021-031AM,2026-05-22T04:23:45.569184,13.14504414,.00015124,87.8943,294.8817,103.4868,256.6430,0,U,48245,999,24476,.62614127E-3,.245E-5,0
PLEIADES NEO 3,2021-034A,2026-05-22T07:41:46.530816,14.81677444,.00015048,97.8928,217.4589,95.5660,264.5725,0,U,48268,999,27382,.13764895E-3,.1031E-4,0
LEMUR-2-AMANDA-SVANTE,2021-034B,2026-05-22T04:34:26.906880,15.32562662,.00015685,97.5763,219.8247,37.8089,322.3263,0,U,48269,999,27707,.73029214E-3,.22926E-3,0
AII-BRAVO,2021-034C,2026-05-22T03:06:50.765472,15.03243465,.00058568,97.5631,197.6381,14.7461,345.3934,0,U,48270,999,27570,.16895697E-3,.2229E-4,0
TYVAK-182A,2021-034D,2026-05-22T05:15:07.236000,15.05886150,.00075633,97.5739,201.5906,69.0831,291.1205,0,U,48271,999,27592,.2512029E-3,.3591E-4,0
NORSAT 3,2021-034E,2026-05-22T06:46:02.989056,15.05020415,.00085249,97.5325,200.1768,43.6364,316.5535,0,U,48272,999,27594,.16747364E-3,.2319E-4,0
LEMUR-2-SPECIAL-K,2021-034F,2026-05-21T17:37:53.258016,15.57301761,.00017603,97.5653,226.8334,197.5474,162.5720,0,U,48273,999,27756,.10381667E-2,.7626E-3,0
CSS (TIANHE),2021-035A,2026-05-22T02:48:59.129856,15.60736689,.00074553,41.4679,120.5221,276.8129,83.1862,0,U,48274,999,28909,.13455509E-3,.112E-3,0
STARLINK-2567,2021-036A,2026-05-22T02:01:50.958912,15.31704049,.00012709,53.1602,69.5805,88.7618,271.3529,0,U,48276,999,27998,.10477581E-4,-.4E-6,0
STARLINK-2569,2021-036B,2026-05-21T22:09:54.076320,15.29357648,.00056305,53.1249,32.2869,103.7980,256.3647,0,U,48277,999,28049,.9375736E-3,.26807E-3,0
STARLINK-2543,2021-036C,2026-05-22T02:46:01.827552,15.31720219,.00014762,53.1633,42.8967,100.4723,259.6444,0,U,48278,999,28036,.53648565E-4,.1301E-4,0
STARLINK-2565,2021-036E,2026-05-22T03:13:55.748064,15.31710699,.00013926,53.1605,119.6000,84.5050,275.6110,0,U,48280,999,27928,.47635717E-4,.1114E-4,0
STARLINK-2558,2021-036G,2026-05-22T06:32:40.271712,15.31705759,.00011825,53.1619,93.2115,81.9136,278.2000,0,U,48282,999,27968,.74145049E-4,.1937E-4,0
STARLINK-2516,2021-036H,2026-05-22T04:45:16.245216,15.31709511,.00011087,53.1595,93.4964,90.6972,269.4157,0,U,48283,999,27967,.28977866E-3,.864E-4,0
